{"type": "FeatureCollection", "features": [{"type": "Feature", "geometry": {"type": "LineString", "coordinates": [[-3.4678044696079997, 51.2063525944747], [-3.45550055737732, 51.200794087562656], [-3.438421792069461, 51.19312084340693]]}, "properties": {"from": "Minehead", "to": "Dunster", "length_m_approx": 2524.59}}, {"type": "Feature", "geometry": {"type": "LineString", "coordinates": [[-3.438421792069461, 51.19312084340693], [-3.4384106058174666, 51.19311581758444], [-3.430128359161017, 51.18938706969695], [-3.428156790323584, 51.18851329450328], [-3.4255206448461024, 51.187348342963816], [-3.4240628685455476, 51.186647835050735], [-3.4232001400107777, 51.18627466644705], [-3.4209891792881137, 51.18534570809811], [-3.4203687578501274, 51.18508579958993], [-3.419226833080984, 51.18468222760802], [-3.4167364652346635, 51.18401213802122], [-3.4144467370008442, 51.18354763927235], [-3.4121142949197747, 51.18319735776373], [-3.4091139792489003, 51.18278606578261], [-3.4046799096675784, 51.182176868774036], [-3.4009412856296137, 51.18164339266704], [-3.4009364958739723, 51.18164269696945]]}, "properties": {"from": "Dunster", "to": "Blue Anchor", "length_m_approx": 2960.99}}, {"type": "Feature", "geometry": {"type": "LineString", "coordinates": [[-3.4009364958739723, 51.18164269696945], [-3.39894899135183, 51.18135401791875], [-3.397770622175784, 51.181079871744316], [-3.396495067912383, 51.180668649426536], [-3.395332979859063, 51.18015957252081], [-3.394434017806674, 51.179641726071935], [-3.3933771299890907, 51.178903023277], [-3.3925146123444847, 51.17811099888377], [-3.3922109100226407, 51.17773782799446], [-3.391810021539726, 51.17716664348919], [-3.388700120925563, 51.17244215226236], [-3.3855318623573396, 51.16760573067236], [-3.384256306424561, 51.16567086502931], [-3.3824660595163323, 51.16298573666731], [-3.382077319169383, 51.162437224242126], [-3.3818708008603835, 51.16216296558392], [-3.381542801193035, 51.16185823182883], [-3.3809353957168184, 51.16143160072917], [-3.380291544517121, 51.160974492094425], [-3.37961124890964, 51.16057070903264], [-3.3789795458458514, 51.160281202020684], [-3.3786393980426226, 51.16016692243713], [-3.377752584126142, 51.15993074373338], [-3.3770115582433107, 51.15980122200395], [-3.3765134846738647, 51.15974027229376], [-3.376027559240299, 51.15970979740817], [-3.375116449052001, 51.15974027229376], [-3.3743875609017095, 51.159816459419034], [-3.373610080207726, 51.159976451972625], [-3.36889393722751, 51.16151740162036]]}, "properties": {"from": "Blue Anchor", "to": "Washford", "length_m_approx": 3707.23}}, {"type": "Feature", "geometry": {"type": "LineString", "coordinates": [[-3.36889393722751, 51.16151740162036], [-3.3688871698821004, 51.16151961277862], [-3.3642741180266, 51.16306408997747], [-3.363277972600798, 51.16343737859728], [-3.3625369363145694, 51.16375733803386], [-3.3617716037564946, 51.16423727302731], [-3.361249233916112, 51.16462578817405], [-3.360824049161323, 51.16500668219982], [-3.3589689380730476, 51.16677501607384], [-3.3585680495901045, 51.167140657360534], [-3.358094272292533, 51.16748344343455], [-3.3574747173646813, 51.167833844343136], [-3.3568173431586956, 51.168192938590806], [-3.3559669736500553, 51.16861188944242], [-3.355359566858141, 51.16893943018502], [-3.354885789560541, 51.16925935145531], [-3.354442968131252, 51.16964365524399], [-3.353738376251897, 51.170473909839444], [-3.350078698430707, 51.174894000257495], [-3.3496886598685762, 51.17524924001202], [-3.348984067990159, 51.175805216142464], [-3.34819443916021, 51.17626979379514], [-3.3472954771078776, 51.17662774387597], [-3.345947034029763, 51.177092313240706], [-3.3415989341657166, 51.17865389222422], [-3.340481305668419, 51.17910321013372], [-3.339047825638829, 51.17975052484704], [-3.338377383288133, 51.17993823616405], [-3.3374541249648075, 51.180075312849425], [-3.3365430147765096, 51.180037236032916], [-3.335036645933144, 51.179831620682194], [-3.3334998526352706, 51.17960982625752], [-3.332795260756882, 51.17958697994072], [-3.33212711328531, 51.179632672562974], [-3.331386076999081, 51.17975451933316], [-3.330645040712909, 51.1800210580204], [-3.3297131479941697, 51.18063919811077]]}, "properties": {"from": "Washford", "to": "Watchet", "length_m_approx": 3691.35}}, {"type": "Feature", "geometry": {"type": "LineString", "coordinates": [[-3.3297131479941697, 51.18063919811077], [-3.329600301031178, 51.18071405139645], [-3.3286403621376905, 51.181239642984536], [-3.3275470299122674, 51.18167370550273], [-3.326538734637438, 51.18194784814503], [-3.325664068856952, 51.18205445873264], [-3.3248987362997866, 51.182062073765195], [-3.323696070851014, 51.1818869276988], [-3.3228821457501283, 51.181658475307955], [-3.322189711011447, 51.181300551843066], [-3.3214365265893093, 51.180858870580494], [-3.320877712340206, 51.18056949090743], [-3.3201245279180966, 51.18027249409087], [-3.319298454681274, 51.18001357222778], [-3.3187274922971426, 51.17985364917476], [-3.317719197022342, 51.17967087929114], [-3.3166519673042956, 51.17955556620353], [-3.3156436720304043, 51.179464180761414], [-3.3147325618421064, 51.179426103440164], [-3.3138821923334376, 51.179281409333726], [-3.3129103414663916, 51.17897678867766], [-3.312157157044254, 51.178687397190146], [-3.3115688680305198, 51.17834806980113], [-3.3115673478751435, 51.178346869036574]]}, "properties": {"from": "Watchet", "to": "Doniford Halt", "length_m_approx": 1425.76}}, {"type": "Feature", "geometry": {"type": "LineString", "coordinates": [[-3.3115673478751435, 51.178346869036574], [-3.3109614612386054, 51.17786828164304], [-3.3105848690275366, 51.177441799088314], [-3.310220424952405, 51.17689345857903], [-3.3099896103715594, 51.17613186371807], [-3.3100139066434338, 51.17541595307878], [-3.31014754111996, 51.17503297483361], [-3.3110586513082865, 51.17302225603501], [-3.3113016140250124, 51.17241292999648], [-3.311447391655264, 51.171841679523624], [-3.311568640584312, 51.17085940531385], [-3.311459307361872, 51.170021540638004], [-3.311216344645146, 51.16915319209329], [-3.310730419211609, 51.16820865405833], [-3.3095014550694843, 51.1664579204507]]}, "properties": {"from": "Doniford Halt", "to": "Williton", "length_m_approx": 1387.91}}, {"type": "Feature", "geometry": {"type": "LineString", "coordinates": [[-3.3095014550694843, 51.1664579204507], [-3.3094791639628625, 51.1664261654237], [-3.308264477638943, 51.1647047927938], [-3.3073047749078626, 51.163615420383906], [-3.3058591467432166, 51.16238889338459], [-3.3044545470100672, 51.161246711119986], [-3.303239733426267, 51.16018011298496], [-3.302450104894689, 51.15927348542576], [-3.3022192903138716, 51.158854449747565], [-3.3018912906455853, 51.158161127813116], [-3.3013689208042933, 51.15681254871387], [-3.301138106213301, 51.15627920037227], [-3.300530699421415, 51.15523534578105], [-3.299911144493592, 51.15446577362411], [-3.2994738116028657, 51.154031454958954], [-3.298842114912105, 51.15353617583844], [-3.2980646342181217, 51.15303327003619], [-3.2964003396085673, 51.15233224068237], [-3.2950883409373546, 51.15201982199622], [-3.291443896679226, 51.15127305348531], [-3.2902047868235798, 51.15092252676891], [-3.2893544173149394, 51.15056437715705], [-3.288479751534396, 51.15008429991272], [-3.2880070484903, 51.149844758870586], [-3.2862212725223685, 51.148777897132334], [-3.285370903013728, 51.14822159515796], [-3.2844701260054023, 51.147366737390996], [-3.284142126338054, 51.14693997274125], [-3.2839356080290543, 51.14655130864503], [-3.2835194818259765, 51.14560502035897], [-3.2833737041957534, 51.14521634502131], [-3.282778445539776, 51.14440849953499], [-3.2812842248314382, 51.14300616813725], [-3.2809076356977585, 51.142503143767755], [-3.280518895350781, 51.141779089404054], [-3.2803123770418097, 51.14121508129381], [-3.2802394882262433, 51.14043765341441], [-3.280251636362152, 51.13955350383699], [-3.2802193969767472, 51.13901234793491], [-3.279952137989085, 51.138227260691025], [-3.279575545778016, 51.1375412511982], [-3.278907398306444, 51.136695158786154], [-3.278542954231341, 51.13613871118119], [-3.278142065748426, 51.13514776048393], [-3.2780269667891844, 51.134810257279725], [-3.277881189158933, 51.13368968691063], [-3.2776382264421784, 51.13292737860101], [-3.2772249001157263, 51.1320418079184], [-3.276593197051909, 51.130921170366435], [-3.27573067940736, 51.1296251610558], [-3.2749289024424115, 51.128832290370894], [-3.274296072413989, 51.128289794883614], [-3.273388166178484, 51.127727221064]]}, "properties": {"from": "Williton", "to": "Stogumber", "length_m_approx": 5238.22}}, {"type": "Feature", "geometry": {"type": "LineString", "coordinates": [[-3.273388166178484, 51.127727221064], [-3.2733363696828803, 51.12769512595193], [-3.2720729635553596, 51.12697846347555], [-3.2710646682805873, 51.12623891713403], [-3.2703843726739876, 51.12563659744731], [-3.2698671216054436, 51.12501941345508], [-3.2692961592213123, 51.124462825147845], [-3.268421493440826, 51.123829983719276], [-3.26766830901866, 51.12343350033453], [-3.266028310680042, 51.12277777034572], [-3.264899628841249, 51.122477434884786], [-3.2641585925550203, 51.122225813456225], [-3.2630531121936883, 51.12170731649343], [-3.2619840762392016, 51.121059187106965], [-3.261235626584096, 51.12052092076405], [-3.260688960471839, 51.11995665296618], [-3.260032961136204, 51.119407629034384], [-3.2590708911272372, 51.11878651017045], [-3.25836629924882, 51.118435736749404], [-3.25689637481139, 51.11795532535089], [-3.2551713395222635, 51.11759691994328], [-3.250256985229811, 51.117092694488036], [-3.248689875706816, 51.116894424308185], [-3.2463574336257466, 51.116421622754274], [-3.2455192122521055, 51.11620809788619], [-3.2449846942758143, 51.11600982391096], [-3.2439840956063506, 51.115514622279335], [-3.2432309111851225, 51.11498079777999], [-3.2427328376156765, 51.114324947809536], [-3.242064690144133, 51.11270816161229], [-3.241727148348275, 51.112120103893716], [-3.2411926303710175, 51.1113803196686], [-3.240609519851006, 51.110709164970814], [-3.239953520515371, 51.11014477734034], [-3.239333965587548, 51.109626144791434], [-3.2386569914258985, 51.108865518200986], [-3.2382075104001444, 51.108110427394195], [-3.237940251411544, 51.107256168376296], [-3.237655203575571, 51.10635312223738], [-3.237144981870159, 51.10543780931434], [-3.2365254269423076, 51.10451485043086], [-3.235845131335793, 51.10350796517602], [-3.2350955243955752, 51.102547200106045], [-3.234269451158781, 51.10165469674533], [-3.23334377702349, 51.100786373620494]]}, "properties": {"from": "Stogumber", "to": "Crowcombe Heathfield", "length_m_approx": 4380.62}}, {"type": "Feature", "geometry": {"type": "LineString", "coordinates": [[-3.23334377702349, 51.100786373620494], [-3.2332854521557977, 51.10073166232476], [-3.2304133916361764, 51.09802986963035], [-3.229016356015279, 51.09688551962742], [-3.2280323570123244, 51.096160749977], [-3.2262344329075745, 51.0950773888959], [-3.2249578791783904, 51.0944127152589], [-3.2237066211877448, 51.09361161056418], [-3.2233543252476125, 51.09330642417285], [-3.222698325912887, 51.09252055994429], [-3.2220301784413437, 51.09139133359372], [-3.221636769292161, 51.090856656220524], [-3.2210050662284004, 51.09018520350165], [-3.2205434370667376, 51.08981132219421], [-3.2197902526446, 51.08913222392542], [-3.2195108492950624, 51.08881937822869], [-3.219024923861525, 51.088125004317504], [-3.218781961144799, 51.08758323281734], [-3.2185997391067644, 51.08659887117602], [-3.218602362450895, 51.085865475343155], [-3.2187602882161457, 51.08525499830756], [-3.219234065514655, 51.084125594551494], [-3.2193433987371236, 51.083652457755306], [-3.219331250007798, 51.083164052665154], [-3.2191733242425755, 51.082561171434804], [-3.218833176438352, 51.08198880856676], [-3.2182500659183404, 51.0813630170602], [-3.21761836285458, 51.08091274720317], [-3.217037601231908, 51.08055343738465], [-3.2159928615502054, 51.080171846365715], [-3.214450048298147, 51.079729196840816], [-3.2132716791221583, 51.079355231010766], [-3.212348234975593, 51.07894310467404], [-3.2116800875040497, 51.07859202883262], [-3.2108904586741005, 51.078042513472866], [-3.2103182915731168, 51.07751556836877], [-3.209795921731768, 51.076920245916995], [-3.2089334040871904, 51.07591275970256], [-3.2083777427796747, 51.07537930161308], [-3.2071507810599655, 51.07440994587358], [-3.205497453017699, 51.07335103579376], [-3.2040639729889904, 51.072633530396416], [-3.202929407741408, 51.07211176549484], [-3.201994001281264, 51.07160033951641], [-3.201374446353441, 51.071256841284054], [-3.200426891758241, 51.07034846700478], [-3.19992980806029, 51.06969190463636], [-3.1996504009366333, 51.06911174888151], [-3.1994924751705014, 51.06869189478621], [-3.199169290862983, 51.0668871168688], [-3.198841291194725, 51.065810704274554], [-3.1985011115975794, 51.06500774683195], [-3.198160963794294, 51.06429774655143], [-3.19785726039882, 51.06377096511278], [-3.1974320756440306, 51.063106753884455], [-3.197193189516952, 51.06268540434695], [-3.1967933814361515, 51.06192515124076], [-3.196441085496957, 51.06103186383237], [-3.196191461215278, 51.05990400289093], [-3.1960699798568726, 51.059132841796156], [-3.195984942906307, 51.05814787478718], [-3.195899905955713, 51.05770501457516], [-3.195693387645832, 51.057086530293844], [-3.1953811166301023, 51.056392547507414], [-3.1948830430606563, 51.05546860965373], [-3.1941221696208477, 51.05413842813302]]}, "properties": {"from": "Crowcombe Heathfield", "to": "Bishops Lydeard", "length_m_approx": 6165.23}}, {"type": "Feature", "geometry": {"type": "LineString", "coordinates": [[-3.1941221696208477, 51.05413842813302], [-3.1941055623675823, 51.05410939484017], [-3.193147386667789, 51.052272868069565], [-3.1925885724196235, 51.05133357480187], [-3.1919568693558347, 51.05058518116405], [-3.1907947922506708, 51.04956705171705], [-3.1897257562970935, 51.04887972567431], [-3.1884623501695444, 51.0482687606295], [-3.186836750663076, 51.047705192785344], [-3.185682677758024, 51.04744552704119], [-3.184285642137098, 51.04710184955326], [-3.183254965369457, 51.046760307610356], [-3.181590670758993, 51.0460423900044], [-3.180407007544943, 51.04561941244518], [-3.1789978237880803, 51.04524517097053], [-3.177017677646205, 51.04489383948723], [-3.1759729379636212, 51.04460360712204], [-3.1748796057382265, 51.04416061737453], [-3.1737977865602147, 51.04352626310296], [-3.172352158395597, 51.04252568800274], [-3.1701169162197687, 51.040829518350705], [-3.1690357321302827, 51.03990526999192], [-3.168294843295712, 51.03917943220992], [-3.1673594368355396, 51.038064181429604], [-3.166618240136927, 51.03704815679259], [-3.1657800187642238, 51.035825906526725], [-3.1632397837321378, 51.03215856315978], [-3.160142009318349, 51.02776548703005], [-3.159242754216592, 51.02645727976076], [-3.1586110511528034, 51.02573904752256], [-3.1575663114702195, 51.02492147174945], [-3.1570254895113785, 51.02460907192071]]}, "properties": {"from": "Bishops Lydeard", "to": "Norton Fitzwarren", "length_m_approx": 4369.75}}]}